{"type": "FeatureCollection", "features": [ {"type": "Feature", "properties": {"norad_id": 41836, "name": "HIMAWARI-9", "group": "weather", "lat": 0.04110359188248804, "lon": 93.68576778695204, "alt_km": 35789.0690955292, "timestamp": "2025-12-22T14:45:57.026890+00:00", "meta": {"OBJECT_NAME": "HIMAWARI-9", "OBJECT_ID": "2016-064A", "EPOCH": "2025-12-21T22:25:41.083392", "MEAN_MOTION": 1.00273007, "ECCENTRICITY": 0.00015095, "INCLINATION": 0.0167, "RA_OF_ASC_NODE": 21.999, "ARG_OF_PERICENTER": 310.9837, "MEAN_ANOMALY": 234.9553, "EPHEMERIS_TYPE": 0, "CLASSIFICATION_TYPE": "U", "NORAD_CAT_ID": 41836, "ELEMENT_SET_NO": 999, "REV_AT_EPOCH": 3343, "BSTAR": 0, "MEAN_MOTION_DOT": 0, "MEAN_MOTION_DDOT": 0}, "tle": {"line1": "1 41836U 16064A   25355.93450328  .00000000  00000+0  00000+0 0  9991", "line2": "2 41836   0.0167  21.9990 0001509 310.9837 234.9553  1.00273007 33438"}}, "geometry": {"type": "Point", "coordinates": [93.68576778695204, 0.04110359188248804]}}, {"type": "Feature", "properties": {"norad_id": 41866, "name": "GOES 16", "group": "weather", "lat": 0.055662385467930425, "lon": -151.79808407542376, "alt_km": 35779.14765947755, "timestamp": "2025-12-22T14:45:57.026902+00:00", "meta": {"OBJECT_NAME": "GOES 16", "OBJECT_ID": "2016-071A", "EPOCH": "2025-12-22T05:49:12.823392", "MEAN_MOTION": 1.00271989, "ECCENTRICITY": 0.00030663, "INCLINATION": 0.0713, "RA_OF_ASC_NODE": 103.5201, "ARG_OF_PERICENTER": 162.6815, "MEAN_ANOMALY": 167.4855, "EPHEMERIS_TYPE": 0, "CLASSIFICATION_TYPE": "U", "NORAD_CAT_ID": 41866, "ELEMENT_SET_NO": 999, "REV_AT_EPOCH": 3332, "BSTAR": 0, "MEAN_MOTION_DOT": -6.9e-07, "MEAN_MOTION_DDOT": 0}, "tle": {"line1": "1 41866U 16071A   25356.24250953 -.00000069  00000+0  00000+0 0  9995", "line2": "2 41866   0.0713 103.5201 0003066 162.6815 167.4855  1.00271989 33328"}}, "geometry": {"type": "Point", "coordinates": [-151.79808407542376, 0.055662385467930425]}}, {"type": "Feature", "properties": {"norad_id": 41882, "name": "FENGYUN 4A", "group": "weather", "lat": -0.16370270406332008, "lon": 76.55848438339048, "alt_km": 35804.29942101076, "timestamp": "2025-12-22T14:45:57.026914+00:00", "meta": {"OBJECT_NAME": "FENGYUN 4A", "OBJECT_ID": "2016-077A", "EPOCH": "2025-12-19T13:51:06.687072", "MEAN_MOTION": 1.00266581, "ECCENTRICITY": 0.0004506, "INCLINATION": 1.866, "RA_OF_ASC_NODE": 82.3247, "ARG_OF_PERICENTER": 142.8816, "MEAN_ANOMALY": 194.7423, "EPHEMERIS_TYPE": 0, "CLASSIFICATION_TYPE": "U", "NORAD_CAT_ID": 41882, "ELEMENT_SET_NO": 999, "REV_AT_EPOCH": 3312, "BSTAR": 0, "MEAN_MOTION_DOT": -3.34e-06, "MEAN_MOTION_DDOT": 0}, "tle": {"line1": "1 41882U 16077A   25353.57716073 -.00000334  00000+0  00000+0 0  9997", "line2": "2 41882   1.8660  82.3247 0004506 142.8816 194.7423  1.00266581 33125"}}, "geometry": {"type": "Point", "coordinates": [76.55848438339048, -0.16370270406332008]}}, {"type": "Feature", "properties": {"norad_id": 41884, "name": "CYGFM05", "group": "weather", "lat": 22.88753877840292, "lon": 19.778187070027318, "alt_km": 423.1529594053645, "timestamp": "2025-12-22T14:45:57.026926+00:00", "meta": {"OBJECT_NAME": "CYGFM05", "OBJECT_ID": "2016-078A", "EPOCH": "2025-12-22T06:50:34.483776", "MEAN_MOTION": 15.47972398, "ECCENTRICITY": 0.0010813, "INCLINATION": 34.9608, "RA_OF_ASC_NODE": 344.7631, "ARG_OF_PERICENTER": 266.357, "MEAN_ANOMALY": 93.5915, "EPHEMERIS_TYPE": 0, "CLASSIFICATION_TYPE": "U", "NORAD_CAT_ID": 41884, "ELEMENT_SET_NO": 999, "REV_AT_EPOCH": 50124, "BSTAR": 0.00039510961, "MEAN_MOTION_DOT": 0.00021324, "MEAN_MOTION_DDOT": 0}, "tle": {"line1": "1 41884U 16078A   25356.28512134  .00021324  00000+0  39511-3 0  9997", "line2": "2 41884  34.9608 344.7631 0010813 266.3570  93.5915 15.47972398501246"}}, "geometry": {"type": "Point", "coordinates": [19.778187070027318, 22.88753877840292]}}, {"type": "Feature", "properties": {"norad_id": 41885, "name": "CYGFM04", "group": "weather", "lat": 11.433403169825539, "lon": -26.06372902003686, "alt_km": 411.3824812344419, "timestamp": "2025-12-22T14:45:57.026937+00:00", "meta": {"OBJECT_NAME": "CYGFM04", "OBJECT_ID": "2016-078B", "EPOCH": "2025-12-22T05:24:31.663008", "MEAN_MOTION": 15.50741791, "ECCENTRICITY": 0.00095949, "INCLINATION": 34.9357, "RA_OF_ASC_NODE": 319.6539, "ARG_OF_PERICENTER": 290.1059, "MEAN_ANOMALY": 69.863, "EPHEMERIS_TYPE": 0, "CLASSIFICATION_TYPE": "U", "NORAD_CAT_ID": 41885, "ELEMENT_SET_NO": 999, "REV_AT_EPOCH": 50141, "BSTAR": 0.0004131743, "MEAN_MOTION_DOT": 0.00024599, "MEAN_MOTION_DDOT": 0}, "tle": {"line1": "1 41885U 16078B   25356.22536647  .00024599  00000+0  41317-3 0  9991", "line2": "2 41885  34.9357 319.6539 0009594 290.1059  69.8630 15.50741791501411"}}, "geometry": {"type": "Point", "coordinates": [-26.06372902003686, 11.433403169825539]}}, {"type": "Feature", "properties": {"norad_id": 41886, "name": "CYGFM02", "group": "weather", "lat": 34.63164394176919, "lon": 36.83285133395061, "alt_km": 410.4415145110979, "timestamp": "2025-12-22T14:45:57.026948+00:00", "meta": {"OBJECT_NAME": "CYGFM02", "OBJECT_ID": "2016-078C", "EPOCH": "2025-12-22T05:08:53.104128", "MEAN_MOTION": 15.52149177, "ECCENTRICITY": 0.00112199, "INCLINATION": 34.9445, "RA_OF_ASC_NODE": 317.9275, "ARG_OF_PERICENTER": 291.1701, "MEAN_ANOMALY": 68.7823, "EPHEMERIS_TYPE": 0, "CLASSIFICATION_TYPE": "U", "NORAD_CAT_ID": 41886, "ELEMENT_SET_NO": 999, "REV_AT_EPOCH": 50154, "BSTAR": 0.00041881463, "MEAN_MOTION_DOT": 0.00026253, "MEAN_MOTION_DDOT": 0}, "tle": {"line1": "1 41886U 16078C   25356.21450352  .00026253  00000+0  41881-3 0  9994", "line2": "2 41886  34.9445 317.9275 0011219 291.1701  68.7823 15.52149177501548"}}, "geometry": {"type": "Point", "coordinates": [36.83285133395061, 34.63164394176919]}}, {"type": "Feature", "properties": {"norad_id": 41887, "name": "CYGFM01", "group": "weather", "lat": 33.0236099437108, "lon": 96.31092820493994, "alt_km": 421.16444511227473, "timestamp": "2025-12-22T14:45:57.026959+00:00", "meta": {"OBJECT_NAME": "CYGFM01", "OBJECT_ID": "2016-078D", "EPOCH": "2025-12-22T05:01:07.711392", "MEAN_MOTION": 15.48558372, "ECCENTRICITY": 0.00104961, "INCLINATION": 34.9438, "RA_OF_ASC_NODE": 347.5423, "ARG_OF_PERICENTER": 258.1877, "MEAN_ANOMALY": 101.7667, "EPHEMERIS_TYPE": 0, "CLASSIFICATION_TYPE": "U", "NORAD_CAT_ID": 41887, "ELEMENT_SET_NO": 999, "REV_AT_EPOCH": 50117, "BSTAR": 0.00038894204, "MEAN_MOTION_DOT": 0.00021426, "MEAN_MOTION_DDOT": 0}, "tle": {"line1": "1 41887U 16078D   25356.20911703  .00021426  00000+0  38894-3 0  9993", "line2": "2 41887  34.9438 347.5423 0010496 258.1877 101.7667 15.48558372501177"}}, "geometry": {"type": "Point", "coordinates": [96.31092820493994, 33.0236099437108]}}, {"type": "Feature", "properties": {"norad_id": 41888, "name": "CYGFM08", "group": "weather", "lat": -11.105587210406716, "lon": 164.08580237909393, "alt_km": 416.77723572103514, "timestamp": "2025-12-22T14:45:57.026970+00:00", "meta": {"OBJECT_NAME": "CYGFM08", "OBJECT_ID": "2016-078E", "EPOCH": "2025-12-22T06:10:40.817568", "MEAN_MOTION": 15.49790916, "ECCENTRICITY": 0.00119, "INCLINATION": 34.9467, "RA_OF_ASC_NODE": 330.1057, "ARG_OF_PERICENTER": 281.1832, "MEAN_ANOMALY": 78.7553, "EPHEMERIS_TYPE": 0, "CLASSIFICATION_TYPE": "U", "NORAD_CAT_ID": 41888, "ELEMENT_SET_NO": 999, "REV_AT_EPOCH": 50141, "BSTAR": 0.00041187253, "MEAN_MOTION_DOT": 0.00023725, "MEAN_MOTION_DDOT": 0}, "tle": {"line1": "1 41888U 16078E   25356.25741687  .00023725  00000+0  41187-3 0  9994", "line2": "2 41888  34.9467 330.1057 0011900 281.1832  78.7553 15.49790916501416"}}, "geometry": {"type": "Point", "coordinates": [164.08580237909393, -11.105587210406716]}}, {"type": "Feature", "properties": {"norad_id": 41890, "name": "CYGFM07", "group": "weather", "lat": -15.7701017911936, "lon": 160.5381004783819, "alt_km": 416.37381350693613, "timestamp": "2025-12-22T14:45:57.026981+00:00", "meta": {"OBJECT_NAME": "CYGFM07", "OBJECT_ID": "2016-078G", "EPOCH": "2025-12-22T06:08:39.336576", "MEAN_MOTION": 15.50383411, "ECCENTRICITY": 0.00098531, "INCLINATION": 34.9484, "RA_OF_ASC_NODE": 319.0422, "ARG_OF_PERICENTER": 296.1247, "MEAN_ANOMALY": 63.8461, "EPHEMERIS_TYPE": 0, "CLASSIFICATION_TYPE": "U", "NORAD_CAT_ID": 41890, "ELEMENT_SET_NO": 999, "REV_AT_EPOCH": 50143, "BSTAR": 0.00041114767, "MEAN_MOTION_DOT": 0.00024167, "MEAN_MOTION_DDOT": 0}, "tle": {"line1": "1 41890U 16078G   25356.25601084  .00024167  00000+0  41115-3 0  9995", "line2": "2 41890  34.9484 319.0422 0009853 296.1247  63.8461 15.50383411501435"}}, "geometry": {"type": "Point", "coordinates": [160.5381004783819, -15.7701017911936]}}, {"type": "Feature", "properties": {"norad_id": 41891, "name": "CYGFM03", "group": "weather", "lat": 21.355409608524663, "lon": -7.33615950953415, "alt_km": 414.094551419018, "timestamp": "2025-12-22T14:45:57.026991+00:00", "meta": {"OBJECT_NAME": "CYGFM03", "OBJECT_ID": "2016-078H", "EPOCH": "2025-12-22T05:19:24.218112", "MEAN_MOTION": 15.50276606, "ECCENTRICITY": 0.00096037, "INCLINATION": 34.9439, "RA_OF_ASC_NODE": 321.1909, "ARG_OF_PERICENTER": 283.2899, "MEAN_ANOMALY": 76.6752, "EPHEMERIS_TYPE": 0, "CLASSIFICATION_TYPE": "U", "NORAD_CAT_ID": 41891, "ELEMENT_SET_NO": 999, "REV_AT_EPOCH": 50140, "BSTAR": 0.00040834907, "MEAN_MOTION_DOT": 0.00023908, "MEAN_MOTION_DDOT": 0}, "tle": {"line1": "1 41891U 16078H   25356.22180808  .00023908  00000+0  40835-3 0  9999", "line2": "2 41891  34.9439 321.1909 0009603 283.2899  76.6752 15.50276606501402"}}, "geometry": {"type": "Point", "coordinates": [-7.33615950953415, 21.355409608524663]}}]}